[{"OBJECT_NAME":"OBJECT B","OBJECT_ID":"2025-313B","EPOCH":"2026-03-09T22:01:30.454176","MEAN_MOTION":14.73613198,"ECCENTRICITY":0.02934893,"INCLINATION":97.5206,"RA_OF_ASC_NODE":141.38,"ARG_OF_PERICENTER":298.1139,"MEAN_ANOMALY":59.0692,"EPHEMERIS_TYPE":0,"CLASSIFICATION_TYPE":"U","NORAD_CAT_ID":67249,"ELEMENT_SET_NO":999,"REV_AT_EPOCH":1051,"BSTAR":0.00024043091,"MEAN_MOTION_DOT":3.075e-5,"MEAN_MOTION_DDOT":0},{"OBJECT_NAME":"COSMOS 2084","OBJECT_ID":"1990-055A","EPOCH":"2026-03-09T23:42:10.320480","MEAN_MOTION":15.05654003,"ECCENTRICITY":0.00170188,"INCLINATION":62.7921,"RA_OF_ASC_NODE":334.5624,"ARG_OF_PERICENTER":190.1371,"MEAN_ANOMALY":169.9389,"EPHEMERIS_TYPE":0,"CLASSIFICATION_TYPE":"U","NORAD_CAT_ID":20663,"ELEMENT_SET_NO":999,"REV_AT_EPOCH":93636,"BSTAR":0.00023056361,"MEAN_MOTION_DOT":3.154e-5,"MEAN_MOTION_DDOT":0}]
